{{Infobox Planet  
| name = 686 Gersuind
| image = 
| caption = 
| discovery=yes | physical_characteristics = yes | bgcolour=#FFFFC0
| discovery_ref = 
| discoverer = [[奥古斯特·科普夫|奥古斯特·科普夫]]
| discovery_site = [[海德堡|海德堡]]（[[天文台编号列表|024]]）
| discovered =  1909年8月15日
| mp_name = 686
| alt_names = 1909 HF
| named_after = Gersuind 
| mp_category=[[小行星带|主带小行星]]
| orbit_ref = <ref>[http://ssd.jpl.nasa.gov/sbdb.cgi?sstr=686 686 Gersuind (1909 HF)]</ref>
| epoch = 2011年8月27日
| semimajor= 2.588145582941284AU
| perihelion=1.891247507090308AU
| aphelion= 3.285043658792261[[天文单位|AU]]
| eccentricity =0.2692654078056113			
| period =1520.832831466792[[日|地球日]]<br>4.16[[年|地球年]] 
| inclination=15.67793165884077[[角度|°]]
| asc_node=243.3779786414997°
| arg_peri=88.31955922101713°
| mean_anomaly=170.8638474332756°
| avg_speed=
 | dimensions=41.13千米
 | mass=
 | density=
 | surface_grav=
 | escape_velocity=
 | rotation=6.3127小时
 | spectral_type=[[S-型小行星|S]]
 | magnitude=
 | abs_magnitude=9.67
 | albedo=0.1416
 | single_temperature=
}}
'''小行星686'''（'''686 Gersuind'''），是由[[德国|德国]][[天文学家|天文学家]][[奥古斯特·科普夫|奥古斯特·科普夫]]于1909年8月15日在德国[[海德堡|海德堡]]发现的[[小行星带|主带]][[小行星|小行星]]。

小行星686以德国剧作家[[格哈特·霍普特曼|格哈特·霍普特曼]]的[[戏剧|戏剧]]《Gersuind》的登场人物Gersuind命名。

== 参考资料 ==
{{Reflist}}

{{Minor Planet Number|(685)[[小行星685|小行星685]]|(687)[[小行星687|小行星687]]}}

[[Category:小行星带天体|Category:小行星带天体]]
[[Category:1909年发现的小行星|Category:1909年发现的小行星]]
[[Category:S-型小行星|Category:S-型小行星]]